METEOR-M2 4             
1 59051U 24039A   25010.10363341  .00000100  00000+0  64340-4 0  9998
2 59051  98.6285 333.2182 0006045 241.2833 118.7738 14.22323932 44903
